FENGYUN 3D              
1 43010U 17072A   26155.95521069  .00000107  00000+0  72176-4 0  9995
2 43010  99.0124 130.1570 0002658  80.4478 279.6998 14.19737045443253
NOAA 20 (JPSS-1)        
1 43013U 17073A   26155.73669523  .00000077  00000+0  57419-4 0  9992
2 43013  98.7769  95.3101 0000621  37.0568 323.0651 14.19509363442704
GOES 17                 
1 43226U 18022A   26155.90387147 -.00000170  00000+0  00000+0 0  9995
2 43226   0.9062  85.9394 0000737   6.9647  36.3448  1.00271536 30302
SENTINEL-3B             
1 43437U 18039A   26155.63646008  .00000150  00000+0  80159-4 0  9996
2 43437  98.6251 223.3483 0000956  75.6484 284.4803 14.26738215422335
FENGYUN 2H              
1 43491U 18050A   26155.93731231 -.00000119  00000+0  00000+0 0  9993
2 43491   2.9999  79.2130 0001426 126.7650 104.2880  1.00271936 29310
METOP-C                 
1 43689U 18087A   26155.89101290  .00000124  00000+0  76330-4 0  9992
2 43689  98.6648 215.7189 0001284 142.9406 217.1860 14.21508749393086
GEO-KOMPSAT-2A          
1 43823U 18100A   26155.72968678 -.00000332  00000+0  00000+0 0  9999
2 43823   0.0505 138.9461 0002314 305.7918 199.3806  1.00269705 27507
METEOR-M2 2             
1 44387U 19038A   26155.95158169  .00000084  00000+0  56253-4 0  9996
2 44387  98.9142 143.0568 0002362  65.7294 294.4131 14.24362271359557
ARKTIKA-M 1             
1 47719U 21016A   26153.03917935 -.00000200  00000+0  00000+0 0  9993
2 47719  63.2379  59.8266 7283239 269.8643  14.6915  2.00628509 38489
FENGYUN 3E              
1 49008U 21062A   26155.94044565 -.00000144  00000+0 -47075-4 0  9995
2 49008  98.7490 159.4848 0002654 104.5246 255.6225 14.19902284254848
GOES 18                 
1 51850U 22021A   26155.62433821  .00000109  00000+0  00000+0 0  9992
2 51850   0.0401 135.7142 0000617 344.7633 220.3521  1.00271724  6468
NOAA 21 (JPSS-2)        
1 54234U 22150A   26155.84053503  .00000075  00000+0  56334-4 0  9991
2 54234  98.7057  94.8372 0000958 186.3074 173.8091 14.19563206184795
METEOSAT-12 (MTG-I1)    
1 54743U 22170C   26155.92145907  .00000004  00000+0  00000+0 0  9993
2 54743   0.7248  20.8931 0003561  69.6448 134.1257  1.00271450 12850
TIANMU-1 03             
1 55973U 23039A   26155.95523438  .00017353  00000+0  34614-3 0  9993
2 55973  97.5234 329.4491 0004023 129.0628 231.0980 15.46922214178948
TIANMU-1 04             
1 55974U 23039B   26155.94938556  .00017849  00000+0  34883-3 0  9992
2 55974  97.5170 328.5961 0004706 126.8651 233.3031 15.47506844178950
TIANMU-1 05             
1 55975U 23039C   26155.93541541  .00016539  00000+0  33085-3 0  9994
2 55975  97.5217 329.0479 0003581 144.8618 215.2868 15.46850536178929
TIANMU-1 06             
1 55976U 23039D   26155.95202338  .00017573  00000+0  34460-3 0  9992
2 55976  97.5223 329.6888 0003944 140.8604 219.2932 15.47415597178955
FENGYUN 3G              
1 56232U 23055A   26155.94659773  .00028262  00000+0  43008-3 0  9999
2 56232  49.9932  49.1385 0005515 147.0093 213.1220 15.54234099178106
METEOR-M2 3             
1 57166U 23091A   26155.94308946  .00000014  00000+0  24992-4 0  9996
2 57166  98.6086 211.1714 0003641 188.9260 171.1855 14.24045759152770
TIANMU-1 07             
1 57399U 23101A   26155.93330678  .00007361  00000+0  25865-3 0  9993
2 57399  97.2593 206.8841 0003284 147.2956 212.8488 15.29660179159778
TIANMU-1 08             
1 57400U 23101B   26155.89998331  .00007595  00000+0  26673-3 0  9994
2 57400  97.2583 206.6240 0004869 145.2712 214.8848 15.29664641159768
TIANMU-1 09             
1 57401U 23101C   26155.94904400  .00007654  00000+0  26859-3 0  9997
2 57401  97.2540 206.0940 0003647 155.6508 204.4906 15.29691822159776
TIANMU-1 10             
1 57402U 23101D   26155.91645002  .00007219  00000+0  25366-3 0  9994
2 57402  97.2619 207.1002 0005223 159.5704 200.5747 15.29661826159768
FENGYUN 3F              
1 57490U 23111A   26155.92464549  .00000073  00000+0  55015-4 0  9994
2 57490  98.6837 226.1616 0001569 102.2191 257.9161 14.19936990147126
ARKTIKA-M 2             
1 58584U 23198A   26154.30372208  .00000150  00000+0  00000+0 0  9990
2 58584  63.2209 155.9142 6898549 267.4684  18.7857  2.00591941 18047
TIANMU-1 11             
1 58645U 23205A   26155.92991218  .00006718  00000+0  25695-3 0  9991
2 58645  97.3448 177.6802 0010270  55.9662 304.2551 15.26863094135653
TIANMU-1 12             
1 58646U 23205B   26155.89997398  .00006525  00000+0  25009-3 0  9998
2 58646  97.3437 177.4090 0008178  43.7824 316.4062 15.26823353135632
TIANMU-1 13             
1 58647U 23205C   26155.93098569  .00006933  00000+0  26674-3 0  9998
2 58647  97.3464 177.7102 0007405  25.5478 334.6126 15.26678889135630
TIANMU-1 14             
1 58648U 23205D   26155.98209181  .00006640  00000+0  25520-3 0  9992
2 58648  97.3401 176.9520 0008383  28.5481 331.6216 15.26724454135648
TIANMU-1 19             
1 58660U 23208A   26155.93803444  .00009627  00000+0  32007-3 0  9992
2 58660  97.4496 272.1780 0004910  17.0899 343.0506 15.31381552135454
