OBJECT_NAME,OBJECT_ID,EPOCH,MEAN_MOTION,ECCENTRICITY,INCLINATION,RA_OF_ASC_NODE,ARG_OF_PERICENTER,MEAN_ANOMALY,EPHEMERIS_TYPE,CLASSIFICATION_TYPE,NORAD_CAT_ID,ELEMENT_SET_NO,REV_AT_EPOCH,BSTAR,MEAN_MOTION_DOT,MEAN_MOTION_DDOT
FENGYUN 3D,2017-072A,2026-06-04T22:55:30.203616,14.19737045,.00026588,99.0124,130.1570,80.4478,279.6998,0,U,43010,999,44325,.72175683E-4,.107E-5,0
NOAA 20 (JPSS-1),2017-073A,2026-06-04T17:40:50.467872,14.19509363,.00006219,98.7769,95.3101,37.0568,323.0651,0,U,43013,999,44270,.57419187E-4,.77E-6,0
GOES 17,2018-022A,2026-06-04T21:41:34.495008,1.00271536,.00007374,0.9062,85.9394,6.9647,36.3448,0,U,43226,999,3030,0,-.17E-5,0
SENTINEL-3B,2018-039A,2026-06-04T15:16:30.150912,14.26738215,.00009566,98.6251,223.3483,75.6484,284.4803,0,U,43437,999,42233,.80159365E-4,.15E-5,0
FENGYUN 2H,2018-050A,2026-06-04T22:29:43.783584,1.00271936,.00014264,2.9999,79.2130,126.7650,104.2880,0,U,43491,999,2931,0,-.119E-5,0
METOP-C,2018-087A,2026-06-04T21:23:03.514560,14.21508749,.0001284,98.6648,215.7189,142.9406,217.1860,0,U,43689,999,39308,.76329748E-4,.124E-5,0
GEO-KOMPSAT-2A,2018-100A,2026-06-04T17:30:44.937792,1.00269705,.00023147,0.0505,138.9461,305.7918,199.3806,0,U,43823,999,2750,0,-.332E-5,0
METEOR-M2 2,2019-038A,2026-06-04T22:50:16.658016,14.24362271,.00023625,98.9142,143.0568,65.7294,294.4131,0,U,44387,999,35955,.56253031E-4,.84E-6,0
ARKTIKA-M 1,2021-016A,2026-06-02T00:56:25.095840,2.00628509,.72832396,63.2379,59.8266,269.8643,14.6915,0,U,47719,999,3848,0,-.2E-5,0
FENGYUN 3E,2021-062A,2026-06-04T22:34:14.504160,14.19902284,.00026548,98.7490,159.4848,104.5246,255.6225,0,U,49008,999,25484,-.47074959E-4,-.144E-5,0
GOES 18,2022-021A,2026-06-04T14:59:02.821344,1.00271724,.00006177,0.0401,135.7142,344.7633,220.3521,0,U,51850,999,646,0,.109E-5,0
NOAA 21 (JPSS-2),2022-150A,2026-06-04T20:10:22.226592,14.19563206,.0000958,98.7057,94.8372,186.3074,173.8091,0,U,54234,999,18479,.56333583E-4,.75E-6,0
METEOSAT-12 (MTG-I1),2022-170C,2026-06-04T22:06:54.063648,1.00271450,.00035618,0.7248,20.8931,69.6448,134.1257,0,U,54743,999,1285,0,.4E-7,0
TIANMU-1 03,2023-039A,2026-06-04T22:55:32.250432,15.46922214,.00040233,97.5234,329.4491,129.0628,231.0980,0,U,55973,999,17894,.34614186E-3,.17353E-3,0
TIANMU-1 04,2023-039B,2026-06-04T22:47:06.912384,15.47506844,.00047065,97.5170,328.5961,126.8651,233.3031,0,U,55974,999,17895,.34883267E-3,.17849E-3,0
TIANMU-1 05,2023-039C,2026-06-04T22:26:59.891424,15.46850536,.00035816,97.5217,329.0479,144.8618,215.2868,0,U,55975,999,17892,.33085195E-3,.16539E-3,0
TIANMU-1 06,2023-039D,2026-06-04T22:50:54.820032,15.47415597,.00039447,97.5223,329.6888,140.8604,219.2932,0,U,55976,999,17895,.34459837E-3,.17573E-3,0
FENGYUN 3G,2023-055A,2026-06-04T22:43:06.043872,15.54234099,.00055155,49.9932,49.1385,147.0093,213.1220,0,U,56232,999,17810,.43008462E-3,.28262E-3,0
METEOR-M2 3,2023-091A,2026-06-04T22:38:02.929344,14.24045759,.00036417,98.6086,211.1714,188.9260,171.1855,0,U,57166,999,15277,.24992405E-4,.14E-6,0
TIANMU-1 07,2023-101A,2026-06-04T22:23:57.705792,15.29660179,.0003284,97.2593,206.8841,147.2956,212.8488,0,U,57399,999,15977,.25864606E-3,.7361E-4,0
TIANMU-1 08,2023-101B,2026-06-04T21:35:58.557984,15.29664641,.00048697,97.2583,206.6240,145.2712,214.8848,0,U,57400,999,15976,.26672924E-3,.7595E-4,0
TIANMU-1 09,2023-101C,2026-06-04T22:46:37.401600,15.29691822,.00036479,97.2540,206.0940,155.6508,204.4906,0,U,57401,999,15977,.26858708E-3,.7654E-4,0
TIANMU-1 10,2023-101D,2026-06-04T21:59:41.281728,15.29661826,.00052239,97.2619,207.1002,159.5704,200.5747,0,U,57402,999,15976,.25366453E-3,.7219E-4,0
FENGYUN 3F,2023-111A,2026-06-04T22:11:29.370336,14.19936990,.00015699,98.6837,226.1616,102.2191,257.9161,0,U,57490,999,14712,.55014756E-4,.73E-6,0
ARKTIKA-M 2,2023-198A,2026-06-03T07:17:21.587712,2.00591941,.68985494,63.2209,155.9142,267.4684,18.7857,0,U,58584,999,1804,0,.15E-5,0
TIANMU-1 11,2023-205A,2026-06-04T22:19:04.412352,15.26863094,.00102705,97.3448,177.6802,55.9662,304.2551,0,U,58645,999,13565,.25695253E-3,.6718E-4,0
TIANMU-1 12,2023-205B,2026-06-04T21:35:57.751872,15.26823353,.00081789,97.3437,177.4090,43.7824,316.4062,0,U,58646,999,13563,.25008629E-3,.6525E-4,0
TIANMU-1 13,2023-205C,2026-06-04T22:20:37.163616,15.26678889,.00074054,97.3464,177.7102,25.5478,334.6126,0,U,58647,999,13563,.26674291E-3,.6933E-4,0
TIANMU-1 14,2023-205D,2026-06-04T23:34:12.732384,15.26724454,.00083838,97.3401,176.9520,28.5481,331.6216,0,U,58648,999,13564,.25519608E-3,.664E-4,0
TIANMU-1 19,2023-208A,2026-06-04T22:30:46.175616,15.31381552,.00049103,97.4496,272.1780,17.0899,343.0506,0,U,58660,999,13545,.32006614E-3,.9627E-4,0
